8P/Tuttle,e,54.9125,270.2072,207.4964,5.700540,0.0724153,0.81996410,318.9500,02/08.0/2020,2000,g  9.0,4.0
# From MPEC 2019-JE2
9P/Tempel,e,10.4732,68.7371,179.3045,3.147409,0.1765120,0.50955911,226.6132,02/08.0/2020,2000,g  9.0,4.0
# From MPC114607
10P/Tempel,e,12.0396,117.8080,195.5057,3.060895,0.1840481,0.53841490,284.4808,02/08.0/2020,2000,g  5.0,10.0
# From MPEC 2017-L52
11P/Tempel-Swift-LINEAR,e,14.4240,238.9471,167.8639,3.285719,0.1654849,0.57718780,311.6563,02/08.0/2020,2000,g  9.0,4.0
# From  27, 604
12P/Pons-Brooks,e,74.0643,255.7005,199.0659,17.06552,0.0139806,0.95426405,338.5490,02/08.0/2020,2000,g  5.0,6.0
# From  27, 604
13P/Olbers,e,44.6273,85.8390,64.5879,16.66210,0.0144914,0.92977931,336.7364,02/08.0/2020,2000,g  5.0,6.0
# From MPC100283
14P/Wolf,e,27.9002,202.0909,158.9823,4.259595,0.1121119,0.35646162,89.4671,02/08.0/2020,2000,g  5.5,12.0
# From MPC 92276
15P/Finlay,e,6.7973,13.7209,347.8430,3.503632,0.1502887,0.71688410,281.6036,02/08.0/2020,2000,g 12.0,4.0
# From MPC 92276
16P/Brooks,e,3.0066,138.9466,245.1393,3.660443,0.1407355,0.48778666,298.8055,02/08.0/2020,2000,g  7.5,10.0
# From MPC114607
17P/Holmes,e,19.0229,326.6528,24.5595,3.635936,0.1421608,0.42824092,306.2562,02/08.0/2020,2000,g 10.0,6.0
# From MPC 92984
19P/Borrelly,e,29.6185,74.5765,351.8008,3.600791,0.1442471,0.63970363,255.5736,02/08.0/2020,2000,g  4.5,10.0
# From MPC111773
21P/Giacobini-Zinner,e,32.0049,195.3743,172.8487,3.496420,0.1507539,0.71052501,77.7420,02/08.0/2020,2000,g  9.0,6.0
# From MPC 94283
22P/Kopff,e,4.7415,120.8360,162.9427,3.443538,0.1542399,0.54883054,241.3966,02/08.0/2020,2000,g  3.0,10.4
# From MPC 14747
23P/Brorsen-Metcalf,e,19.1574,312.3230,128.9193,16.95709,0.0141149,0.97092618,0.0000,08/16.8006/1989,2000,g 10.0,6.0
# From MPC110085
24P/Schaumasse,e,11.7219,79.5570,57.7248,4.067820,0.1201328,0.70734122,97.5762,02/08.0/2020,2000,g  6.5,14.0
# From MPC 94674
26P/Grigg-Skjellerup,e,22.4472,211.5355,2.1938,3.013764,0.1883823,0.64077027,93.1096,02/08.0/2020,2000,g 12.0,16.0
# From MPC 78188
27P/Crommelin,e,29.1147,250.5745,196.0125,9.192641,0.0353626,0.91791902,110.3194,02/08.0/2020,2000,g 12.0,8.0
# From MPC114607
28P/Neujmin,e,14.3114,346.3459,347.4379,6.968737,0.0535763,0.77357864,338.6780,02/08.0/2020,2000,g  8.5,6.0
# From MPEC 2019-VB6
29P/Schwassmann-Wachmann,e,9.3671,312.3817,48.0431,6.030887,0.0665476,0.04375488,22.2048,02/08.0/2020,2000,g  4.0,4.0
# From MPC110085
30P/Reinmuth,e,8.3288,119.0215,13.0578,3.743946,0.1360535,0.51281502,122.0711,02/08.0/2020,2000,g  9.5,6.0
# From MPC108597
31P/Schwassmann-Wachmann,e,4.5473,114.1130,18.3180,4.242591,0.1127866,0.19263958,24.4836,02/08.0/2020,2000,g  5.0,8.0
# From MPC 92276
32P/Comas Sola,e,9.9409,57.6316,53.3232,4.498317,0.1033068,0.55693890,200.5114,02/08.0/2020,2000,g  6.5,8.0
# From MPEC 2013-O31
33P/Daniel,e,22.3543,66.3696,20.6444,4.080284,0.1195827,0.45344369,151.9716,02/08.0/2020,2000,g 10.0,12.0
# From  15, 452
35P/Herschel-Rigollet,e,64.536,356.267,29.123,28.5697,0.006454,0.9733596,0.000,12/25.2487/2091,2000,g  9.0,4.0
# From MPC105240
36P/Whipple,e,9.9529,181.8638,200.7628,4.129841,0.1174368,0.26833912,346.6591,02/08.0/2020,2000,g  8.5,6.0
# From MPEC 2018-HA5
37P/Forbes,e,8.9565,314.5689,330.0587,3.458692,0.1532273,0.53416745,98.7967,02/08.0/2020,2000,g 10.5,4.8
# From MPEC 2018-S50
38P/Stephan-Oterma,e,18.3535,77.9971,359.5593,11.26595,0.0260647,0.85902731,11.8353,02/08.0/2020,2000,g  3.5,12.0
# From MPC115887
39P/Oterma,e,1.5612,299.2554,94.8312,7.410874,0.0488540,0.22361944,301.9463,02/08.0/2020,2000,g  7.0,6.0
# From MPC100283
40P/Vaisala,e,11.4715,133.7909,47.4634,4.949880,0.0894977,0.63023527,171.1216,02/08.0/2020,2000,g  5.5,12.0
# From MPC105240
41P/Tuttle-Giacobini-Kresak,e,9.2217,141.0067,62.2580,3.085703,0.1818331,0.66047317,187.5844,02/08.0/2020,2000,g 10.0,16.0
# From MPC 94283
42P/Neujmin,e,3.9882,150.2023,147.1459,4.873068,0.0916221,0.58537914,161.6884,02/08.0/2020,2000,g 13.0,6.0
# From MPC102956
43P/Wolf-Harrington,e,9.4652,244.6821,223.8676,4.299459,0.1105563,0.44204518,138.3931,02/08.0/2020,2000,g  8.0,6.0
# From MPC 89313
44P/Reinmuth,e,5.8982,286.4818,58.1240,3.688981,0.1391056,0.42694051,247.9160,02/08.0/2020,2000,g  8.3,6.0
# From MPC103849
45P/Honda-Mrkos-Pajdusakova,e,4.3261,87.6951,327.9824,3.049302,0.1850987,0.81784496,210.4923,02/08.0/2020,2000,g 13.5,8.0
# From MPC114607
46P/Wirtanen,e,11.7448,82.1536,356.3677,3.091907,0.1812861,0.65850649,76.5248,02/08.0/2020,2000,g 14.0,6.0
# From NK 2718
47P/Ashbrook-Jackson,e,13.0320,356.9348,357.6059,4.125721,0.1176127,0.31769278,114.4108,02/08.0/2020,2000,g  9.0,4.0
# From MPEC 2015-M77
48P/Johnson,e,12.2078,110.1271,216.6057,3.500110,0.1505156,0.42726168,81.9779,02/08.0/2020,2000,g  9.0,4.0
# From MPEC 2015-M77
49P/Arend-Rigaux,e,19.0449,118.8019,332.9590,3.569651,0.1461388,0.59895054,83.6904,02/08.0/2020,2000,g  9.0,4.0
# From MPEC 2015-S97
50P/Arend,e,19.0962,355.1537,49.3657,4.089679,0.1191709,0.52847453,174.3485,02/08.0/2020,2000,g  9.5,6.0
# From NK 3013
51P-A/Harrington,e,5.4254,83.6767,269.2329,3.708719,0.1379965,0.54278550,226.5271,02/08.0/2020,2000,g 16.0,8.0
# From NK 3014
51P-A/Harrington,e,5.4247,83.6923,269.1936,3.709744,0.1379394,0.54285729,226.2814,02/08.0/2020,2000,g 10.0,8.0
# From NK 3014
51P-A/Harrington,e,5.4247,83.6923,269.1936,3.709726,0.1379404,0.54285421,226.2845,02/08.0/2020,2000,g 10.0,8.0
# From MPEC 2015-L08
51P-D/Harrington,e,5.4262,83.6822,269.1830,3.708809,0.1379915,0.54279963,226.5232,02/08.0/2020,2000,g 16.0,8.0
# From MPEC 2015-L08
51P-D/Harrington,e,5.4262,83.6812,269.1838,3.708797,0.1379922,0.54280021,226.5282,02/08.0/2020,2000,g 16.0,8.0
# From NK 3013
51P-D/Harrington,e,5.4254,83.6770,269.2326,3.708719,0.1379966,0.54278569,226.5273,02/08.0/2020,2000,g 16.0,8.0
# From NK 3013
51P-D/Harrington,e,5.4254,83.6770,269.2326,3.708719,0.1379965,0.54278582,226.5273,02/08.0/2020,2000,g 16.0,8.0
# From MPC 88330
52P/Harrington-Abell,e,10.2310,336.8378,139.6019,3.861948,0.1298657,0.53964050,281.3846,02/08.0/2020,2000,g 13.5,6.0
# From MPC100283
53P/Van Biesbroeck,e,6.6075,148.8484,134.3672,5.423569,0.0780326,0.55232722,107.5451,02/08.0/2020,2000,g  7.7,4.8
# From MPC 89011
54P/de Vico-Swift-NEAT,e,6.0602,358.8178,1.7687,3.793782,0.1333815,0.42519264,137.1667,02/08.0/2020,2000,g  9.0,4.0
# From MPC 31070
55P/Tempel-Tuttle,e,162.3652,235.4043,172.5535,10.34631,0.0296160,0.90681413,238.0619,02/08.0/2020,2000,g  9.0,4.0
# From MPC101100
56P/Slaughter-Burnham,e,8.1557,345.9771,44.0472,5.073192,0.0862546,0.50657339,112.1181,02/08.0/2020,2000,g  8.5,6.0
# From MPC 98565
57P/du Toit-Neujmin-Delporte,e,2.8499,188.7815,115.1991,3.447595,0.1539677,0.50065834,264.9339,02/08.0/2020,2000,g 12.5,6.0
# From NK 778
58P/Jackson-Neujmin,e,13.1009,159.0658,200.4610,4.082929,0.1194666,0.66260988,347.2114,02/08.0/2020,2000,g  9.0,4.0
# From MPC111774
59P/Kearns-Kwee,e,9.3411,312.8297,127.6470,4.490732,0.1035687,0.47489124,52.7580,02/08.0/2020,2000,g  7.0,6.0
# From MPEC 2015-M77
60P/Tsuchinshan,e,3.6065,267.5827,216.6535,3.513308,0.1496683,0.53761800,63.4122,02/08.0/2020,2000,g  9.0,4.0
# From MPEC 2015-Q71
61P/Shajn-Schaldach,e,5.9990,162.9908,221.9197,3.684309,0.1393702,0.42381452,222.0434,02/08.0/2020,2000,g  6.0,10.0
# From MPC109147
62P/Tsuchinshan,e,9.4849,89.8366,29.7552,3.398109,0.1573433,0.62441995,125.0010,02/08.0/2020,2000,g  8.0,10.0
# From MPC 84320
63P/Wild,e,19.7437,358.0145,169.1638,5.603916,0.0742962,0.64925484,185.5384,02/08.0/2020,2000,g 10.5,6.0
# From MPC111774
64P/Swift-Gehrels,e,8.9500,299.9991,97.1170,4.455964,0.1047832,0.68750362,48.3163,02/08.0/2020,2000,g  9.5,12.0
# From MPC104795
65P/Gunn,e,9.1839,62.0233,213.7479,3.883353,0.1287935,0.24996773,108.6188,02/08.0/2020,2000,g  5.0,6.0
# From MPC109147
66P/du Toit,e,18.6654,21.8825,257.2718,6.060743,0.0660565,0.78697951,41.6020,02/08.0/2020,2000,g  9.0,4.0
# From MPC 89011
67P/Churyumov-Gerasimenko,e,3.9058,37.1641,21.6044,3.450879,0.1537480,0.65351777,262.9162,02/08.0/2020,2000,g 11.0,4.0
# From MPC 75716
68P/Klemola,e,11.1109,175.0822,153.0615,4.948312,0.0895403,0.63747876,8.1443,02/08.0/2020,2000,g 10.0,4.0
# From MPC114607
69P/Taylor,e,22.0330,104.8305,343.5363,3.890389,0.1284442,0.41311587,41.9555,02/08.0/2020,2000,g  9.5,12.0
# From MPC 92276
70P/Kojima,e,6.5982,119.2680,1.8679,3.675017,0.1398991,0.45329676,271.2571,02/08.0/2020,2000,g 11.0,6.0
# From MPC107051
71P/Clark,e,9.4424,59.4413,209.0003,3.138085,0.1772993,0.49424380,168.8794,02/08.0/2020,2000,g  9.8,6.0
# From MPC 89011
72P/Denning-Fujikawa,e,10.9265,26.6913,346.6672,4.311910,0.1100777,0.81788595,225.2027,02/08.0/2020,2000,g 17.5,10.0
# From MPC106348
73P/Schwassmann-Wachmann,e,11.2356,69.6536,199.4304,3.093138,0.1811779,0.68573254,191.6344,02/08.0/2020,2000,g 11.5,6.0
# From MPC106348
73P-T/Schwassmann-Wachmann,e,11.2377,69.6562,199.4118,3.094697,0.1810409,0.68593577,191.4904,02/08.0/2020,2000,g 11.5,6.0
# From MPC102956
74P/Smirnova-Chernykh,e,6.6382,77.0439,89.5069,4.190032,0.1149154,0.15289429,83.5151,02/08.0/2020,2000,g  5.0,6.0
# From MPC118097
76P/West-Kohoutek-Ikemura,e,30.4567,84.1247,0.0197,3.475023,0.1521485,0.53819445,15.9543,02/08.0/2020,2000,g  8.0,12.0
# From MPC100283
77P/Longmore,e,24.3289,14.8038,196.8675,3.619933,0.1431045,0.35262016,195.4430,02/08.0/2020,2000,g  7.0,8.0
# From MPEC 2016-U66
78P/Gehrels,e,6.2485,210.5403,192.6701,3.740501,0.1362415,0.46168865,42.4171,02/08.0/2020,2000,g  9.0,4.0
# From MPC 94675
79P/du Toit-Hartley,e,3.1480,280.5262,281.8248,2.942768,0.1952405,0.61909416,100.1088,02/08.0/2020,2000,g 16.0,4.0
# From MPEC 2014-P41
80P/Peters-Hartley,e,29.9463,259.8222,339.2485,4.024316,0.1220860,0.59920733,233.7217,02/08.0/2020,2000,g  9.0,4.0
# From MPC105241
81P/Wild,e,3.2371,136.1084,41.7226,3.449953,0.1538099,0.53732450,199.7604,02/08.0/2020,2000,g  7.0,6.0
# From MPC 75717
82P/Gehrels,e,1.1284,239.3134,226.9643,4.137836,0.1170966,0.12186254,69.2034,02/08.0/2020,2000,g  5.0,8.0
# From MPC105241
